     2.100          NAVIGATION                              RINEX VERSION / TYPE
fic2rin                                 07/23/2016 00:24:42 PGM / RUN BY / DATE
                                                            END OF HEADER
 9 16  7 22  8  0  0.0  .172139611095D-03  .727595761418D-11  .000000000000D+00
     .240000000000D+02  .993750000000D+01  .532022160858D-08 -.265422222840D+01
     .623986124992D-06  .504598603584D-03  .455603003502D-05  .515352928162D+04
     .460800000000D+06 -.353902578354D-07 -.108247928536D+01  .931322574615D-08
     .954368117149D+00  .290531250000D+03  .239899015294D+01 -.842213653008D-08
     .117147736816D-09  .100000000000D+01  .190600000000D+04  .000000000000D+00
     .240000000000D+01  .000000000000D+00  .139698386192D-08  .240000000000D+02
     .453606000000D+06  .400000000000D+01
10 16  7 22  8  0  0.0 -.700228847563D-04 -.693489710102D-11  .000000000000D+00
     .820000000000D+02  .209062500000D+02  .447982946002D-08 -.387689456251D+00
     .119954347610D-05  .163691607304D-02  .114608556032D-04  .515368333817D+04
     .460800000000D+06  .279396772385D-07 -.212574619414D+01  .558793544769D-07
     .959492410504D+00  .156906250000D+03 -.274366472524D+01 -.794854537453D-08
     .701457789961D-09  .100000000000D+01  .190600000000D+04  .000000000000D+00
     .240000000000D+01  .000000000000D+00  .232830643654D-08  .820000000000D+02
     .453606000000D+06  .400000000000D+01
11 16  7 22  8  0  0.0 -.656716525555D-03 -.125055521494D-11  .000000000000D+00
     .108000000000D+03 -.124750000000D+03  .600346435410D-08  .131505330232D+01
    -.679865479469D-05  .166381322779D-01  .425986945629D-05  .515367542648D+04
     .460800000000D+06 -.689178705215D-07  .273946513070D+01 -.359490513802D-06
     .897560981989D+00  .267500000000D+03  .154608876835D+01 -.916002440893D-08
    -.295369446180D-09  .100000000000D+01  .190600000000D+04  .000000000000D+00
     .340000000000D+01  .000000000000D+00 -.121071934700D-07  .108000000000D+03
     .453606000000D+06  .400000000000D+01
12 16  7 22  8  0  0.0  .385859049857D-03  .909494701773D-12  .000000000000D+00
     .240000000000D+02  .113000000000D+03  .381158733934D-08  .603460962308D+00
     .592507421970D-05  .610109942500D-02  .830553472042D-05  .515369459724D+04
     .460800000000D+06 -.838190317154D-07  .107257909258D+01  .128522515297D-06
     .990217865337D+00  .234406250000D+03  .781924271313D+00 -.781996859022D-08
     .124290891500D-09  .100000000000D+01  .190600000000D+04  .000000000000D+00
     .240000000000D+01  .000000000000D+00 -.125728547573D-07  .240000000000D+02
     .453606000000D+06  .400000000000D+01
13 16  7 22  8  0  0.0 -.327345915139D-04 -.238742359215D-11  .000000000000D+00
     .270000000000D+02 -.375000000000D+01  .487698886045D-08  .213696747508D+01
    -.298023223877D-06  .414032232948D-02  .469014048576D-05  .515367342186D+04
     .460800000000D+06  .577419996262D-07 -.960876592870D+00 -.707805156708D-07
     .970779642720D+00  .294812500000D+03  .199579043984D+01 -.817319758934D-08
    -.136791412197D-09  .100000000000D+01  .190600000000D+04  .000000000000D+00
     .240000000000D+01  .000000000000D+00 -.111758708954D-07  .270000000000D+02
     .453606000000D+06  .400000000000D+01
14 16  7 22  8  0  0.0 -.258674845099D-04 -.193267624127D-11  .000000000000D+00
     .460000000000D+02 -.515625000000D+01  .508699760815D-08 -.259455047436D+01
    -.283122062683D-06  .888448616024D-02  .451505184174D-05  .515402871323D+04
     .460800000000D+06  .189989805222D-06 -.998284830113D+00  .000000000000D+00
     .963248907641D+00  .291250000000D+03 -.195982255662D+01 -.822641409174D-08
     .235724104569D-10  .100000000000D+01  .190600000000D+04  .000000000000D+00
     .240000000000D+01  .000000000000D+00 -.931322574615D-08  .460000000000D+02
     .453606000000D+06  .400000000000D+01
15 16  7 22  8  0  0.0 -.320366118103D-03 -.147792889038D-11  .000000000000D+00
     .540000000000D+02  .871875000000D+01  .584631495106D-08 -.303827213465D+01
     .407919287682D-06  .822974136099D-02  .421330332756D-05  .515362221909D+04
     .460800000000D+06 -.894069671631D-07 -.113642851642D+01 -.130385160446D-06
     .930054705403D+00  .285343750000D+03  .487345567282D+00 -.859285792702D-08
     .102861427448D-09  .100000000000D+01  .190600000000D+04  .000000000000D+00
     .240000000000D+01  .000000000000D+00 -.107102096081D-07  .540000000000D+02
     .453606000000D+06  .400000000000D+01
16 16  7 22  8  0  0.0 -.330526381731D-05  .216004991671D-11  .000000000000D+00
     .160000000000D+02  .116093750000D+03  .367229582300D-08 -.142660651710D+01
     .602565705776D-05  .869885669090D-02  .898540019989D-05  .515353893089D+04
     .460800000000D+06  .968575477600D-07  .109137899138D+01 -.141561031342D-06
     .990709715951D+00  .223312500000D+03  .388329286879D+00 -.770032074927D-08
     .282868925483D-09  .100000000000D+01  .190600000000D+04  .000000000000D+00
     .240000000000D+01  .000000000000D+00 -.107102096081D-07  .160000000000D+02
     .453606000000D+06  .400000000000D+01
17 16  7 22  8  0  0.0 -.203853007406D-03  .113686837722D-12  .000000000000D+00
     .850000000000D+02 -.169687500000D+02  .429410743824D-08 -.227130717647D+01
    -.772997736931D-06  .110243695090D-01  .151991844177D-05  .515372027206D+04
     .460800000000D+06  .149011611938D-06  .211272784122D+01 -.763684511185D-07
     .976799294606D+00  .360125000000D+03 -.192648613973D+01 -.809176562595D-08
    -.103575742917D-10  .100000000000D+01  .190600000000D+04  .000000000000D+00
     .240000000000D+01  .000000000000D+00 -.107102096081D-07  .850000000000D+02
     .453606000000D+06  .400000000000D+01
18 16  7 22  8  0  0.0  .539085827768D-03  .409272615798D-11  .000000000000D+00
     .110000000000D+02  .333437500000D+02  .534950854279D-08 -.712579966250D+00
     .192411243916D-05  .172694671201D-01  .112485140562D-04  .515370539284D+04
     .460800000000D+06 -.143423676491D-06 -.215676496551D+01  .288709998131D-06
     .925010461461D+00  .150687500000D+03 -.186950902666D+01 -.864143137887D-08
     .712529679721D-09  .100000000000D+01  .190600000000D+04  .000000000000D+00
     .240000000000D+01  .000000000000D+00 -.121071934700D-07  .110000000000D+02
     .453606000000D+06  .400000000000D+01
19 16  7 22  8  0  0.0 -.524789094925D-03  .227373675443D-12  .000000000000D+00
     .730000000000D+02 -.205937500000D+02  .439268297288D-08  .842266880093D+00
    -.879168510437D-06  .107282130048D-01  .217743217945D-05  .515362185097D+04
     .460800000000D+06 -.193715095520D-06  .216138198763D+01  .502914190292D-07
     .973953547360D+00  .348593750000D+03  .824820667674D+00 -.838892086080D-08
    -.208580116771D-09  .100000000000D+01  .190600000000D+04  .000000000000D+00
     .240000000000D+01  .000000000000D+00 -.149011611938D-07  .730000000000D+02
     .453606000000D+06  .400000000000D+01
20 16  7 22  8  0  0.0  .425664242357D-03  .216004991671D-11  .000000000000D+00
     .850000000000D+02  .198125000000D+02  .512628495892D-08 -.310810907592D+01
     .737607479095D-06  .457812671084D-02  .112317502499D-04  .515377516747D+04
     .460800000000D+06 -.372529029846D-08 -.220849622258D+01  .186264514923D-08
     .926341854428D+00  .143156250000D+03  .140308202928D+01 -.815926843771D-08
     .607525305868D-09  .100000000000D+01  .190600000000D+04  .000000000000D+00
     .240000000000D+01  .000000000000D+00 -.838190317154D-08  .850000000000D+02
     .453606000000D+06  .400000000000D+01
21 16  7 22  8  0  0.0 -.528895296156D-03 -.795807864051D-12  .000000000000D+00
     .300000000000D+02 -.114406250000D+03  .491913347308D-08  .210869062766D+00
    -.595301389694D-05  .233601813670D-01  .920332968235D-05  .515358468628D+04
     .460800000000D+06 -.460073351860D-06  .308509149214D+01  .782310962677D-07
     .937294768901D+00  .196281250000D+03 -.177490476528D+01 -.867286125948D-08
    -.300012496725D-09  .100000000000D+01  .190600000000D+04  .000000000000D+00
     .240000000000D+01  .000000000000D+00 -.102445483208D-07  .300000000000D+02
     .453606000000D+06  .400000000000D+01
22 16  7 22  8  0  0.0  .290830619633D-03 -.932232069317D-11  .000000000000D+00
     .280000000000D+02  .180625000000D+02  .523343227918D-08 -.275028255263D+01
     .629574060440D-06  .762420950923D-02  .109076499939D-04  .515377677917D+04
     .460800000000D+06  .191852450371D-06 -.215623616158D+01 -.111758708954D-07
     .922931161867D+00  .145781250000D+03 -.188779737518D+01 -.821248494010D-08
     .670385067086D-09  .100000000000D+01  .190600000000D+04  .000000000000D+00
     .240000000000D+01  .000000000000D+00 -.176951289177D-07  .280000000000D+02
     .453606000000D+06  .400000000000D+01
23 16  7 22  8  0  0.0 -.183126889169D-03 -.147792889038D-11  .000000000000D+00
     .890000000000D+02  .850000000000D+01  .545594154758D-08  .270429726618D+01
     .400468707085D-06  .111238920363D-01  .469014048576D-05  .515363552475D+04
     .460800000000D+06 -.113621354103D-06 -.107774695310D+01 -.152736902237D-06
     .945296129115D+00  .284656250000D+03 -.254817209744D+01 -.835070498324D-08
     .917895376884D-10  .100000000000D+01  .190600000000D+04  .000000000000D+00
     .240000000000D+01  .000000000000D+00 -.200234353542D-07  .890000000000D+02
     .453606000000D+06  .400000000000D+01
24 16  7 22  8  0  0.0 -.205426476896D-04 -.568434188608D-12  .000000000000D+00
     .720000000000D+02 -.144062500000D+02  .484698761078D-08  .218458503870D+01
    -.758096575737D-06  .446712656412D-02  .103842467070D-04  .515360814285D+04
     .460800000000D+06 -.149011611938D-06 -.524326399842D-01  .894069671631D-07
     .949144014744D+00  .173093750000D+03  .401945841629D+00 -.806212153401D-08
    -.541093967307D-09  .100000000000D+01  .190600000000D+04  .000000000000D+00
     .240000000000D+01  .000000000000D+00  .232830643654D-08  .720000000000D+02
     .453606000000D+06  .400000000000D+01
